{
  "type": "FeatureCollection",
  "features": [
    {
      "type": "Feature",
      "properties": {
        "norad_id": 30979,
        "name": "FENGYUN 1C DEB",
        "group": "fengyun-1c-debris",
        "lat": 35.27128437765174,
        "lon": 62.077913412731036,
        "alt_km": 709.5168422703664,
        "timestamp": "2025-12-03T19:33:07.255857+00:00",
        "meta_object_name": "FENGYUN 1C DEB",
        "meta_object_id": "1999-025BBV",
        "meta_epoch": "2025-12-02T04:36:50.855328",
        "meta_mean_motion": 14.78416107,
        "meta_eccentricity": 0.01913935,
        "meta_inclination": 97.83,
        "meta_ra_of_asc_node": 234.9135,
        "meta_arg_of_pericenter": 275.775,
        "meta_mean_anomaly": 240.4379,
        "meta_ephemeris_type": 0,
        "meta_classification_type": "U",
        "meta_norad_cat_id": 30979,
        "meta_element_set_no": 999,
        "meta_rev_at_epoch": 98989,
        "meta_bstar": 0.0013589928,
        "meta_mean_motion_dot": 0.00013437,
        "meta_mean_motion_ddot": 0,
        "tle_line1": "1 30979U 99025BBV 25336.19225527  .00013437  00000+0  13590-2 0  9992",
        "tle_line2": "2 30979  97.8300 234.9135 0191393 275.7750 240.4379 14.78416107989894"
      },
      "geometry": {
        "type": "Point",
        "coordinates": [
          62.077913412731036,
          35.27128437765174
        ]
      }
    },
    {
      "type": "Feature",
      "properties": {
        "norad_id": 30982,
        "name": "FENGYUN 1C DEB",
        "group": "fengyun-1c-debris",
        "lat": 9.119133135985043,
        "lon": 149.58148721908915,
        "alt_km": 850.9500606021411,
        "timestamp": "2025-12-03T19:33:07.255868+00:00",
        "meta_object_name": "FENGYUN 1C DEB",
        "meta_object_id": "1999-025BBY",
        "meta_epoch": "2025-12-02T04:57:42.054336",
        "meta_mean_motion": 14.50885423,
        "meta_eccentricity": 0.0181329,
        "meta_inclination": 98.2164,
        "meta_ra_of_asc_node": 326.6814,
        "meta_arg_of_pericenter": 345.0364,
        "meta_mean_anomaly": 72.4158,
        "meta_ephemeris_type": 0,
        "meta_classification_type": "U",
        "meta_norad_cat_id": 30982,
        "meta_element_set_no": 999,
        "meta_rev_at_epoch": 70901,
        "meta_bstar": 0.00052355,
        "meta_mean_motion_dot": 2.502e-05,
        "meta_mean_motion_ddot": 0,
        "tle_line1": "1 30982U 99025BBY 25336.20673674  .00002502  00000+0  52355-3 0  9992",
        "tle_line2": "2 30982  98.2164 326.6814 0181329 345.0364  72.4158 14.50885423709017"
      },
      "geometry": {
        "type": "Point",
        "coordinates": [
          149.58148721908915,
          9.119133135985043
        ]
      }
    },
    {
      "type": "Feature",
      "properties": {
        "norad_id": 30984,
        "name": "FENGYUN 1C DEB",
        "group": "fengyun-1c-debris",
        "lat": 65.13775043955661,
        "lon": -3.9647485938710587,
        "alt_km": 639.9291923150895,
        "timestamp": "2025-12-03T19:33:07.255878+00:00",
        "meta_object_name": "FENGYUN 1C DEB",
        "meta_object_id": "1999-025BCA",
        "meta_epoch": "2025-12-03T01:02:26.854368",
        "meta_mean_motion": 14.50329769,
        "meta_eccentricity": 0.01281668,
        "meta_inclination": 98.2653,
        "meta_ra_of_asc_node": 13.5601,
        "meta_arg_of_pericenter": 37.7619,
        "meta_mean_anomaly": 323.2485,
        "meta_ephemeris_type": 0,
        "meta_classification_type": "U",
        "meta_norad_cat_id": 30984,
        "meta_element_set_no": 999,
        "meta_rev_at_epoch": 95023,
        "meta_bstar": 0.00098864934,
        "meta_mean_motion_dot": 4.238e-05,
        "meta_mean_motion_ddot": 0,
        "tle_line1": "1 30984U 99025BCA 25337.04336637  .00004238  00000+0  98865-3 0  9996",
        "tle_line2": "2 30984  98.2653  13.5601 0128166  37.7619 323.2485 14.50329769950234"
      },
      "geometry": {
        "type": "Point",
        "coordinates": [
          -3.9647485938710587,
          65.13775043955661
        ]
      }
    },
    {
      "type": "Feature",
      "properties": {
        "norad_id": 30988,
        "name": "FENGYUN 1C DEB",
        "group": "fengyun-1c-debris",
        "lat": 35.65671633633013,
        "lon": 110.11527460825464,
        "alt_km": 545.4525681796067,
        "timestamp": "2025-12-03T19:33:07.255888+00:00",
        "meta_object_name": "FENGYUN 1C DEB",
        "meta_object_id": "1999-025BCE",
        "meta_epoch": "2025-12-03T07:54:06.145920",
        "meta_mean_motion": 15.24405925,
        "meta_eccentricity": 0.0119062,
        "meta_inclination": 98.5424,
        "meta_ra_of_asc_node": 283.3715,
        "meta_arg_of_pericenter": 12.1711,
        "meta_mean_anomaly": 348.2354,
        "meta_ephemeris_type": 0,
        "meta_classification_type": "U",
        "meta_norad_cat_id": 30988,
        "meta_element_set_no": 999,
        "meta_rev_at_epoch": 99420,
        "meta_bstar": 0.0027943,
        "meta_mean_motion_dot": 0.00084539,
        "meta_mean_motion_ddot": 0,
        "tle_line1": "1 30988U 99025BCE 25337.32923780  .00084539  00000+0  27943-2 0  9992",
        "tle_line2": "2 30988  98.5424 283.3715 0119062  12.1711 348.2354 15.24405925994203"
      },
      "geometry": {
        "type": "Point",
        "coordinates": [
          110.11527460825464,
          35.65671633633013
        ]
      }
    },
    {
      "type": "Feature",
      "properties": {
        "norad_id": 30989,
        "name": "FENGYUN 1C DEB",
        "group": "fengyun-1c-debris",
        "lat": -73.94959081164252,
        "lon": -162.3919608514701,
        "alt_km": 897.5531818364907,
        "timestamp": "2025-12-03T19:33:07.255898+00:00",
        "meta_object_name": "FENGYUN 1C DEB",
        "meta_object_id": "1999-025BCF",
        "meta_epoch": "2025-12-02T21:58:05.055456",
        "meta_mean_motion": 14.13841846,
        "meta_eccentricity": 0.00920392,
        "meta_inclination": 99.0546,
        "meta_ra_of_asc_node": 50.3579,
        "meta_arg_of_pericenter": 127.3294,
        "meta_mean_anomaly": 233.6309,
        "meta_ephemeris_type": 0,
        "meta_classification_type": "U",
        "meta_norad_cat_id": 30989,
        "meta_element_set_no": 999,
        "meta_rev_at_epoch": 95849,
        "meta_bstar": 0.0021362586,
        "meta_mean_motion_dot": 4.171e-05,
        "meta_mean_motion_ddot": 0,
        "tle_line1": "1 30989U 99025BCF 25336.91533629  .00004171  00000+0  21363-2 0  9990",
        "tle_line2": "2 30989  99.0546  50.3579 0092039 127.3294 233.6309 14.13841846958495"
      },
      "geometry": {
        "type": "Point",
        "coordinates": [
          -162.3919608514701,
          -73.94959081164252
        ]
      }
    },
    {
      "type": "Feature",
      "properties": {
        "norad_id": 30993,
        "name": "FENGYUN 1C DEB",
        "group": "fengyun-1c-debris",
        "lat": -44.025851993036405,
        "lon": -118.6270166583702,
        "alt_km": 792.7733978930073,
        "timestamp": "2025-12-03T19:33:07.255908+00:00",
        "meta_object_name": "FENGYUN 1C DEB",
        "meta_object_id": "1999-025BCK",
        "meta_epoch": "2025-12-03T05:15:43.689024",
        "meta_mean_motion": 14.35255549,
        "meta_eccentricity": 0.0016692,
        "meta_inclination": 98.8479,
        "meta_ra_of_asc_node": 69.422,
        "meta_arg_of_pericenter": 45.237,
        "meta_mean_anomaly": 344.6713,
        "meta_ephemeris_type": 0,
        "meta_classification_type": "U",
        "meta_norad_cat_id": 30993,
        "meta_element_set_no": 999,
        "meta_rev_at_epoch": 96783,
        "meta_bstar": 0.0026094,
        "meta_mean_motion_dot": 7.442e-05,
        "meta_mean_motion_ddot": 0,
        "tle_line1": "1 30993U 99025BCK 25337.21925566  .00007442  00000+0  26094-2 0  9994",
        "tle_line2": "2 30993  98.8479  69.4220 0016692  45.2370 344.6713 14.35255549967833"
      },
      "geometry": {
        "type": "Point",
        "coordinates": [
          -118.6270166583702,
          -44.025851993036405
        ]
      }
    },
    {
      "type": "Feature",
      "properties": {
        "norad_id": 30994,
        "name": "FENGYUN 1C DEB",
        "group": "fengyun-1c-debris",
        "lat": -59.39646734765593,
        "lon": 1.533249579433994,
        "alt_km": 862.4480848710173,
        "timestamp": "2025-12-03T19:33:07.255919+00:00",
        "meta_object_name": "FENGYUN 1C DEB",
        "meta_object_id": "1999-025BCL",
        "meta_epoch": "2025-12-03T11:20:02.971104",
        "meta_mean_motion": 14.11762154,
        "meta_eccentricity": 0.0017367,
        "meta_inclination": 98.7003,
        "meta_ra_of_asc_node": 346.1975,
        "meta_arg_of_pericenter": 201.1929,
        "meta_mean_anomaly": 158.8525,
        "meta_ephemeris_type": 0,
        "meta_classification_type": "U",
        "meta_norad_cat_id": 30994,
        "meta_element_set_no": 999,
        "meta_rev_at_epoch": 96454,
        "meta_bstar": 0.00023214,
        "meta_mean_motion_dot": 3.81e-06,
        "meta_mean_motion_ddot": 0,
        "tle_line1": "1 30994U 99025BCL 25337.47225661  .00000381  00000+0  23214-3 0  9999",
        "tle_line2": "2 30994  98.7003 346.1975 0017367 201.1929 158.8525 14.11762154964541"
      },
      "geometry": {
        "type": "Point",
        "coordinates": [
          1.533249579433994,
          -59.39646734765593
        ]
      }
    }
  ]
}